TDRS 13                 
1 42915U 17047A   26192.20253300 -.00000094  00000+0  00000+0 0  9997
2 42915   3.4580   3.3043 0014765 111.1679 236.1489  1.00271516 32589
QZS-3 (MICHIBIKI-3)     
1 42917U 17048A   26192.01974839 -.00000340  00000+0  00000+0 0  9990
2 42917   0.0723 218.1550 0002506 266.8053 298.0958  1.00274205 32492
AMAZONAS 5              
1 42934U 17053A   26190.55680899 -.00000270  00000+0  00000+0 0  9994
2 42934   0.0333 322.5996 0001166 111.8422 352.5077  1.00271348 32260
ASIASAT 9               
1 42942U 17057A   26191.80497978 -.00000351  00000+0  00000+0 0  9990
2 42942   0.0164  36.7721 0002432  60.6137 243.2301  1.00271996 32098
INTELSAT 37E (IS-37E)   
1 42950U 17059A   26192.20253300 -.00000134  00000+0  00000+0 0  9994
2 42950   0.0160  53.8956 0002502  63.4931 226.6373  1.00270660 32309
BSAT-4A                 
1 42951U 17059B   26192.01636838 -.00000342  00000+0  00000+0 0  9996
2 42951   0.0336  11.7013 0003300  68.8263 324.1266  1.00270072 32038
QZS-4 (MICHIBIKI-4)     
1 42965U 17062A   26190.74072012 -.00000315  00000+0  00000+0 0  9991
2 42965  40.0954 343.1995 0747415 268.4439  81.4735  1.00291716 32020
SES-11 (ECHOSTAR 105)   
1 42967U 17063A   26192.23957667 -.00000083  00000+0  00000+0 0  9990
2 42967   0.0467 288.7757 0002722 197.3566 144.3261  1.00272960 31968
KOREASAT 5A             
1 42984U 17067A   26192.01706170 -.00000350  00000+0  00000+0 0  9997
2 42984   0.0096   8.0804 0000733 105.7314 294.4112  1.00272310 31764
ALCOMSAT 1              
1 43039U 17078A   26191.98973124 -.00000178  00000+0  00000+0 0  9999
2 43039   0.0348  88.9014 0002160  25.1129 146.4069  1.00271184 31531
SBIRS GEO-3 (USA 282)   
1 43162U 18009A   26192.17914137  .00000134  00000+0  00000+0 0  9993
2 43162   2.2013  13.1886 0001755  97.9363  83.0633  1.00272255 31087
AL YAH 3                
1 43174U 18012A   26191.98169899 -.00000149  00000+0  00000+0 0  9992
2 43174   1.6103  82.8218 0003531  27.3131 152.0673  1.00271173 31088
SES-14                  
1 43175U 18012B   26192.05652875 -.00000270  00000+0  00000+0 0  9998
2 43175   0.0126  23.9272 0000845  68.6631 169.2308  1.00278877  7267
GOES 17                 
1 43226U 18022A   26192.20721992 -.00000176  00000+0  00000+0 0  9995
2 43226   0.9957  85.3189 0000598  80.9156 107.9869  1.00270773 30666
HISPASAT 30W-6          
1 43228U 18023A   26192.09419728 -.00000208  00000+0  00000+0 0  9992
2 43228   0.0404  46.3746 0005172  42.7522 203.8130  1.00271400 30641
SUPERBIRD-B3            
1 43271U 18033A   26192.20183432 -.00000085  00000+0  00000+0 0  9997
2 43271   0.0143 342.5629 0000911 143.9695  37.2568  1.00271691 30300
HYLAS 4                 
1 43272U 18033B   26192.05929336 -.00000226  00000+0  00000+0 0  9999
2 43272   0.0135 313.6111 0000869 196.3214 126.8850  1.00270318 30302
IRNSS-1I                
1 43286U 18035A   26187.83739038  .00000079  00000+0  00000+0 0  9999
2 43286  28.7973  73.8917 0018087 180.4002  27.0525  1.00279237 30279
USA 283                 
1 43339U 18036A   26190.45282684 -.00000304  00000+0  00000+0 0  9993
2 43339   0.0041  71.7274 0000871 148.0481   4.7270  1.00270107 25510
COSMOS 2526             
1 43432U 18037A   26192.02000840 -.00000337  00000+0  00000+0 0  9991
2 43432   0.0316  80.8474 0000154 178.4847 164.8702  1.00269235 30197
APSTAR-6C               
1 43450U 18041A   26192.14558906 -.00000310  00000+0  00000+0 0  9991
2 43450   0.0242 345.6079 0000556 300.7156 189.1574  1.00270359 30058
BANGABANDHUSAT-1        
1 43463U 18044A   26192.20600196 -.00000355  00000+0  00000+0 0  9993
2 43463   0.0149  84.2569 0001656  38.0699   0.0441  1.00272151 29956
SES-12                  
1 43488U 18049A   26191.64466616 -.00000260  00000+0  00000+0 0  9994
2 43488   0.0109   3.5743 0000826 259.5870 352.4882  1.00271965 29658
FENGYUN 2H              
1 43491U 18050A   26192.16641973 -.00000123  00000+0  00000+0 0  9997
2 43491   3.0891  78.7967 0002245 131.1227 218.2633  1.00267630 29672
BEIDOU-2 IGSO-7         
1 43539U 18057A   26182.89122331 -.00000033  00000+0  00000+0 0  9998
2 43539  55.1981 162.9292 0104946 237.8611 308.6338  1.00246939 29273
TELSTAR 19V             
1 43562U 18059A   26192.21515825 -.00000273  00000+0  00000+0 0  9993
2 43562   0.0362 174.2481 0002862 315.2491 174.0955  1.00271480 29389
TELKOM 4 (MERAH PUTIH)  
1 43587U 18064A   26190.76016994 -.00000331  00000+0  00000+0 0  9992
2 43587   0.0179  55.8846 0001650  93.8853 159.5730  1.00269125 29108
TELSTAR 18V             
1 43611U 18069A   26192.02191507 -.00000286  00000+0  00000+0 0  9999
2 43611   0.0148 344.3437 0001680 127.5259 322.9552  1.00270836 28874
AZERSPACE 2 (IS-38)     
1 43632U 18074A   26192.07480676  .00000000  00000+0  00000+0 0  9994
2 43632   0.0274  36.4567 0001227  93.3502 231.2276  1.00270608 28689
HORIZONS-3E             
1 43633U 18074B   26191.88521850 -.00000022  00000+0  00000+0 0  9998
2 43633   0.0363 221.1947 0000856  57.5595 137.7302  1.00271701 28578
AEHF-4 (USA 288)        
1 43651U 18079A   26192.21507257 -.00000269  00000+0  00000+0 0  9999
2 43651   1.4380   5.9259 0058572 354.2301 298.7616  1.00277707 28530
BEIDOU-3 G1             
1 43683U 18085A   26192.16886432 -.00000105  00000+0  00000+0 0  9999
2 43683   2.9254  96.7399 0008138 355.4357  57.6428  1.00272793 28309
