OBJECT_NAME,OBJECT_ID,EPOCH,MEAN_MOTION,ECCENTRICITY,INCLINATION,RA_OF_ASC_NODE,ARG_OF_PERICENTER,MEAN_ANOMALY,EPHEMERIS_TYPE,CLASSIFICATION_TYPE,NORAD_CAT_ID,ELEMENT_SET_NO,REV_AT_EPOCH,BSTAR,MEAN_MOTION_DOT,MEAN_MOTION_DDOT
TDRS 13,2017-047A,2026-07-11T04:51:38.851200,1.00271516,.0014765,3.4580,3.3043,111.1679,236.1489,0,U,42915,999,3258,0,-.94E-6,0
QZS-3 (MICHIBIKI-3),2017-048A,2026-07-11T00:28:26.260896,1.00274205,.0002506,0.0723,218.1550,266.8053,298.0958,0,U,42917,999,3249,0,-.34E-5,0
AMAZONAS 5,2017-053A,2026-07-09T13:21:48.296736,1.00271348,.00011663,0.0333,322.5996,111.8422,352.5077,0,U,42934,999,3226,0,-.27E-5,0
ASIASAT 9,2017-057A,2026-07-10T19:19:10.252992,1.00271996,.0002432,0.0164,36.7721,60.6137,243.2301,0,U,42942,999,3209,0,-.351E-5,0
INTELSAT 37E (IS-37E),2017-059A,2026-07-11T04:51:38.851200,1.00270660,.0002502,0.0160,53.8956,63.4931,226.6373,0,U,42950,999,3230,0,-.134E-5,0
BSAT-4A,2017-059B,2026-07-11T00:23:34.228032,1.00270072,.00033,0.0336,11.7013,68.8263,324.1266,0,U,42951,999,3203,0,-.342E-5,0
QZS-4 (MICHIBIKI-4),2017-062A,2026-07-09T17:46:38.218368,1.00291716,.07474153,40.0954,343.1995,268.4439,81.4735,0,U,42965,999,3202,0,-.315E-5,0
SES-11 (ECHOSTAR 105),2017-063A,2026-07-11T05:44:59.424288,1.00272960,.0002722,0.0467,288.7757,197.3566,144.3261,0,U,42967,999,3196,0,-.83E-6,0
KOREASAT 5A,2017-067A,2026-07-11T00:24:34.130880,1.00272310,.0000733,0.0096,8.0804,105.7314,294.4112,0,U,42984,999,3176,0,-.35E-5,0
ALCOMSAT 1,2017-078A,2026-07-10T23:45:12.779136,1.00271184,.000216,0.0348,88.9014,25.1129,146.4069,0,U,43039,999,3153,0,-.178E-5,0
SBIRS GEO-3 (USA 282),2018-009A,2026-07-11T04:17:57.814368,1.00272255,.0001755,2.2013,13.1886,97.9363,83.0633,0,U,43162,999,3108,0,.134E-5,0
AL YAH 3,2018-012A,2026-07-10T23:33:38.792736,1.00271173,.0003531,1.6103,82.8218,27.3131,152.0673,0,U,43174,999,3108,0,-.149E-5,0
SES-14,2018-012B,2026-07-11T01:21:24.084000,1.00278877,.0000845,0.0126,23.9272,68.6631,169.2308,0,U,43175,999,726,0,-.27E-5,0
GOES 17,2018-022A,2026-07-11T04:58:23.801088,1.00270773,.0000598,0.9957,85.3189,80.9156,107.9869,0,U,43226,999,3066,0,-.176E-5,0
HISPASAT 30W-6,2018-023A,2026-07-11T02:15:38.644992,1.00271400,.0005172,0.0404,46.3746,42.7522,203.8130,0,U,43228,999,3064,0,-.208E-5,0
SUPERBIRD-B3,2018-033A,2026-07-11T04:50:38.485248,1.00271691,.0000911,0.0143,342.5629,143.9695,37.2568,0,U,43271,999,3030,0,-.85E-6,0
HYLAS 4,2018-033B,2026-07-11T01:25:22.946304,1.00270318,.0000869,0.0135,313.6111,196.3214,126.8850,0,U,43272,999,3030,0,-.226E-5,0
IRNSS-1I,2018-035A,2026-07-06T20:05:50.528832,1.00279237,.00180874,28.7973,73.8917,180.4002,27.0525,0,U,43286,999,3027,0,.79E-6,0
USA 283,2018-036A,2026-07-09T10:52:04.238976,1.00270107,.0000871,0.0041,71.7274,148.0481,4.7270,0,U,43339,999,2551,0,-.304E-5,0
COSMOS 2526,2018-037A,2026-07-11T00:28:48.725760,1.00269235,.0000154,0.0316,80.8474,178.4847,164.8702,0,U,43432,999,3019,0,-.337E-5,0
APSTAR-6C,2018-041A,2026-07-11T03:29:38.894784,1.00270359,.0000556,0.0242,345.6079,300.7156,189.1574,0,U,43450,999,3005,0,-.31E-5,0
BANGABANDHUSAT-1,2018-044A,2026-07-11T04:56:38.569344,1.00272151,.0001656,0.0149,84.2569,38.0699,0.0441,0,U,43463,999,2995,0,-.355E-5,0
SES-12,2018-049A,2026-07-10T15:28:19.156224,1.00271965,.0000826,0.0109,3.5743,259.5870,352.4882,0,U,43488,999,2965,0,-.26E-5,0
FENGYUN 2H,2018-050A,2026-07-11T03:59:38.664672,1.00267630,.0002245,3.0891,78.7967,131.1227,218.2633,0,U,43491,999,2967,0,-.123E-5,0
BEIDOU-2 IGSO-7,2018-057A,2026-07-01T21:23:21.693984,1.00246939,.01049468,55.1981,162.9292,237.8611,308.6338,0,U,43539,999,2927,0,-.33E-6,0
TELSTAR 19V,2018-059A,2026-07-11T05:09:49.672800,1.00271480,.0002862,0.0362,174.2481,315.2491,174.0955,0,U,43562,999,2938,0,-.273E-5,0
TELKOM 4 (MERAH PUTIH),2018-064A,2026-07-09T18:14:38.682816,1.00269125,.00016504,0.0179,55.8846,93.8853,159.5730,0,U,43587,999,2910,0,-.331E-5,0
TELSTAR 18V,2018-069A,2026-07-11T00:31:33.462048,1.00270836,.000168,0.0148,344.3437,127.5259,322.9552,0,U,43611,999,2887,0,-.286E-5,0
AZERSPACE 2 (IS-38),2018-074A,2026-07-11T01:47:43.304064,1.00270608,.0001227,0.0274,36.4567,93.3502,231.2276,0,U,43632,999,2868,0,0,0
HORIZONS-3E,2018-074B,2026-07-10T21:14:42.878400,1.00271701,.0000856,0.0363,221.1947,57.5595,137.7302,0,U,43633,999,2857,0,-.22E-6,0
AEHF-4 (USA 288),2018-079A,2026-07-11T05:09:42.270048,1.00277707,.0058572,1.4380,5.9259,354.2301,298.7616,0,U,43651,999,2853,0,-.269E-5,0
BEIDOU-3 G1,2018-085A,2026-07-11T04:03:09.877248,1.00272793,.0008138,2.9254,96.7399,355.4357,57.6428,0,U,43683,999,2830,0,-.105E-5,0
